NORAD_CAT_ID,OBJECT_NAME,OBJECT_TYPE,EPOCH,MEAN_MOTION,ECCENTRICITY,INCLINATION,RA_OF_ASC_NODE,ARG_OF_PERICENTER,MEAN_ANOMALY,BSTAR,MEAN_MOTION_DOT,MEAN_MOTION_DDOT,TLE_LINE0,TLE_LINE1,TLE_LINE2,SEMIMAJOR_AXIS,PERIOD,APOGEE,PERIGEE,DECAYED
56459.0,STARLINK-6048,PAYLOAD,2024-03-28 12:35:31,14.98337422,0.0002942,69.9992,137.4283,267.2365,92.8457,0.00034425,4.018e-05,0.0,0 STARLINK-6048,1 56459U 23064M   24088.52467312  .00004018  00000-0  34425-3 0  9990,2 56459  69.9992 137.4283 0002942 267.2365  92.8457 14.98337422 49080,6950.17,96.107,574.08,569.99,0.0
56459.0,STARLINK-6048,PAYLOAD,2024-03-28 20:36:12,14.98330861,0.0002601,70.0003,136.5864,270.7566,89.3295,0.00022199,2.557e-05,0.0,0 STARLINK-6048,1 56459U 23064M   24088.85848054  .00002557  00000-0  22199-3 0  9993,2 56459  70.0003 136.5864 0002601 270.7566  89.3295 14.98330861 49132,6950.19,96.107,573.863,570.247,0.0
56459.0,STARLINK-6048,PAYLOAD,2024-03-29 12:37:33,14.98335374,0.000291,69.9993,134.9027,265.7376,94.345,6.586e-05,6.93e-06,0.0,0 STARLINK-6048,1 56459U 23064M   24089.52607773  .00000693  00000-0  65860-4 0  9991,2 56459  69.9993 134.9027 0002910 265.7376  94.3450 14.98335374 48879,6950.176,96.107,574.064,570.019,0.0
56459.0,STARLINK-6048,PAYLOAD,2024-03-29 20:38:13,14.98337092,0.0003023,69.9995,134.0602,267.6371,92.4441,-2.4735e-05,-3.88e-06,0.0,0 STARLINK-6048,1 56459U 23064M   24089.85987705 -.00000388  00000-0 -24735-4 0  9992,2 56459  69.9995 134.0602 0003023 267.6371  92.4441 14.98337092 49287,6950.171,96.107,574.137,569.935,0.0
56459.0,STARLINK-6048,PAYLOAD,2024-03-30 12:39:33,14.98337864,0.0002934,69.9991,132.3786,266.8447,93.2377,-0.00010859,-1.389e-05,0.0,0 STARLINK-6048,1 56459U 23064M   24090.52747502 -.00001389  00000-0 -10859-3 0  9990,2 56459  69.9991 132.3786 0002934 266.8447  93.2377 14.98337864 49028,6950.169,96.106,574.073,569.994,0.0
56459.0,STARLINK-6048,PAYLOAD,2024-03-30 20:40:13,14.98338761,0.0003053,69.999,131.537,268.9388,91.1421,-0.00011504,-1.466e-05,0.0,0 STARLINK-6048,1 56459U 23064M   24090.86127310 -.00001466  00000-0 -11504-3 0  9990,2 56459  69.9990 131.5370 0003053 268.9388  91.1421 14.98338761 49436,6950.166,96.106,574.153,569.909,0.0
56459.0,STARLINK-6048,PAYLOAD,2024-03-31 12:41:34,14.98336654,0.0003085,69.9991,129.8536,269.8318,90.2488,3.4387e-05,3.17e-06,0.0,0 STARLINK-6048,1 56459U 23064M   24091.52886821  .00000317  00000-0  34387-4 0  9990,2 56459  69.9991 129.8536 0003085 269.8318  90.2488 14.98336654 49172,6950.172,96.107,574.181,569.893,0.0
56459.0,STARLINK-6048,PAYLOAD,2024-04-01 03:06:47,14.98323262,0.0003071,69.9992,128.3385,271.1127,88.9681,-1.2825e-05,-2.46e-06,0.0,0 STARLINK-6048,1 56459U 23064M   24092.12971779 -.00000246  00000-0 -12825-4 0  9990,2 56459  69.9992 128.3385 0003071 271.1127  88.9681 14.98323262 49628,6950.214,96.107,574.213,569.944,0.0
56459.0,STARLINK-6048,PAYLOAD,2024-04-01 12:43:36,14.98323729,0.0002927,69.9996,127.3299,268.075,92.0074,-8.0646e-06,-1.89e-06,0.0,0 STARLINK-6048,1 56459U 23064M   24092.53027859 -.00000189  00000-0 -80646-5 0  9999,2 56459  69.9996 127.3299 0002927 268.0750  92.0074 14.98323729 49328,6950.212,96.107,574.112,570.043,0.0
56459.0,STARLINK-6048,PAYLOAD,2024-04-01 19:08:07,14.98345398,0.0002977,69.9993,126.6562,271.5676,88.5142,-0.00031013,-3.793e-05,0.0,0 STARLINK-6048,1 56459U 23064M   24092.79731160 -.00003793  00000-0 -31013-3 0  9990,2 56459  69.9993 126.6562 0002977 271.5676  88.5142 14.98345398 49727,6950.145,96.106,574.079,569.941,0.0
56459.0,STARLINK-6048,PAYLOAD,2024-04-02 11:09:28,14.98334985,0.0003109,69.9985,124.9719,271.0792,89.001,2.7496e-05,2.35e-06,0.0,0 STARLINK-6048,1 56459U 23064M   24093.46491021  .00000235  00000-0  27496-4 0  9991,2 56459  69.9985 124.9719 0003109 271.0792  89.0010 14.98334985 49466,6950.177,96.107,574.203,569.882,0.0
56459.0,STARLINK-6048,PAYLOAD,2024-04-02 19:10:08,14.98329855,0.0003118,69.9984,124.1301,270.7047,89.3755,9.0904e-05,9.92e-06,0.0,0 STARLINK-6048,1 56459U 23064M   24093.79871154  .00000992  00000-0  90904-4 0  9990,2 56459  69.9984 124.1301 0003118 270.7047  89.3755 14.98329855 49877,6950.193,96.107,574.225,569.891,0.0
56459.0,STARLINK-6048,PAYLOAD,2024-04-03 11:11:29,14.98329409,0.000304,69.9985,122.447,271.3992,88.6819,7.926e-05,8.53e-06,0.0,0 STARLINK-6048,1 56459U 23064M   24094.46631198  .00000853  00000-0  79260-4 0  9995,2 56459  69.9985 122.4470 0003040 271.3992  88.6819 14.98329409 49616,6950.195,96.107,574.173,569.947,0.0
56459.0,STARLINK-6048,PAYLOAD,2024-04-03 19:12:09,14.98327925,0.0003023,69.9986,121.6053,271.3095,88.7718,2.3447e-05,1.87e-06,0.0,0 STARLINK-6048,1 56459U 23064M   24094.80011450  .00000187  00000-0  23447-4 0  9992,2 56459  69.9986 121.6053 0003023 271.3095  88.7718 14.98327925 50027,6950.199,96.107,574.165,569.963,0.0
56459.0,STARLINK-6048,PAYLOAD,2024-04-04 11:13:30,14.98328585,0.0003032,69.9985,119.9222,271.1436,88.9376,-4.2761e-05,-6.03e-06,0.0,0 STARLINK-6048,1 56459U 23064M   24095.46771576 -.00000603  00000-0 -42761-4 0  9992,2 56459  69.9985 119.9222 0003032 271.1436  88.9376 14.98328585 49765,6950.197,96.107,574.17,569.955,0.0
56459.0,STARLINK-6048,PAYLOAD,2024-04-04 19:14:10,14.98327158,0.0003062,69.9984,119.0802,269.7706,90.3102,5.8267e-05,6.02e-06,0.0,0 STARLINK-6048,1 56459U 23064M   24095.80151411  .00000602  00000-0  58267-4 0  9995,2 56459  69.9984 119.0802 0003062 269.7706  90.3102 14.98327158 50171,6950.202,96.107,574.195,569.939,0.0
56459.0,STARLINK-6048,PAYLOAD,2024-04-05 11:15:31,14.98332431,0.0003087,69.9984,117.3967,270.9959,89.0847,2.4947e-05,2.05e-06,0.0,0 STARLINK-6048,1 56459U 23064M   24096.46911050  .00000205  00000-0  24947-4 0  9998,2 56459  69.9984 117.3967 0003087 270.9959  89.0847 14.98332431 49916,6950.185,96.107,574.196,569.905,0.0
56459.0,STARLINK-6048,PAYLOAD,2024-04-05 19:16:11,14.98331732,0.0003116,69.9984,116.5552,271.0358,89.0444,4.0817e-05,3.94e-06,0.0,0 STARLINK-6048,1 56459U 23064M   24096.80290984  .00000394  00000-0  40817-4 0  9995,2 56459  69.9984 116.5552 0003116 271.0358  89.0444 14.98331732 50328,6950.188,96.107,574.218,569.887,0.0
56459.0,STARLINK-6048,PAYLOAD,2024-04-06 11:17:31,14.98333039,0.0003132,69.9983,114.8719,271.0313,89.0487,6.8702e-05,7.27e-06,0.0,0 STARLINK-6048,1 56459U 23064M   24097.47050727  .00000727  00000-0  68702-4 0  9991,2 56459  69.9983 114.8719 0003132 271.0313  89.0487 14.98333039 50062,6950.183,96.107,574.225,569.872,0.0
56459.0,STARLINK-6048,PAYLOAD,2024-04-07 09:43:24,14.98332674,0.0003086,69.9984,112.5153,271.1349,88.9456,6.6508e-06,-1.4e-07,0.0,0 STARLINK-6048,1 56459U 23064M   24098.40514781 -.00000014  00000-0  66508-5 0  9993,2 56459  69.9984 112.5153 0003086 271.1349  88.9456 14.98332674 50202,6950.185,96.107,574.194,569.905,0.0
56459.0,STARLINK-6048,PAYLOAD,2024-04-07 17:44:05,14.98331718,0.0003079,69.9985,111.6737,271.2936,88.7871,1.7535e-06,-7.2e-07,0.0,0 STARLINK-6048,1 56459U 23064M   24098.73894802 -.00000072  00000-0  17535-5 0  9994,2 56459  69.9985 111.6737 0003079 271.2936  88.7871 14.98331718 50258,6950.188,96.107,574.193,569.913,0.0
56459.0,STARLINK-6048,PAYLOAD,2024-04-08 04:57:01,14.983357,0.0002814,69.9984,110.496,271.1917,88.8919,-8.183e-05,-1.069e-05,0.0,0 STARLINK-6048,1 56459U 23064M   24099.20626759 -.00001069  00000-0 -81830-4 0  9997,2 56459  69.9984 110.4960 0002814 271.1917  88.8919 14.98335700 50682,6950.175,96.107,573.996,570.084,0.0
56459.0,STARLINK-6048,PAYLOAD,2024-04-08 09:45:25,14.98330831,0.0002832,69.9989,109.991,268.0262,92.0573,-1.9197e-05,-3.22e-06,0.0,0 STARLINK-6048,1 56459U 23064M   24099.40654848 -.00000322  00000-0 -19197-4 0  9997,2 56459  69.9989 109.9910 0002832 268.0262  92.0573 14.98330831 50350,6950.19,96.107,574.024,570.087,0.0
56459.0,STARLINK-6048,PAYLOAD,2024-04-08 17:46:05,14.98335418,0.0002974,69.9988,109.1491,270.4869,89.5949,-9.8418e-05,-1.267e-05,0.0,0 STARLINK-6048,1 56459U 23064M   24099.74034688 -.00001267  00000-0 -98418-4 0  9990,2 56459  69.9988 109.1491 0002974 270.4869  89.5949 14.98335418 50402,6950.176,96.107,574.108,569.974,0.0
56459.0,STARLINK-6048,PAYLOAD,2024-04-09 04:59:02,14.98328114,0.0002972,69.9985,107.9705,269.8275,90.2544,3.3752e-05,3.1e-06,0.0,0 STARLINK-6048,1 56459U 23064M   24100.20766787  .00000310  00000-0  33752-4 0  9992,2 56459  69.9985 107.9705 0002972 269.8275  90.2544 14.98328114 50836,6950.199,96.107,574.129,569.998,0.0
56459.0,STARLINK-6048,PAYLOAD,2024-04-09 09:47:26,14.98329042,0.0003039,69.9985,107.4654,272.0669,88.0142,9.6871e-06,2.3e-07,0.0,0 STARLINK-6048,1 56459U 23064M   24100.40794804  .00000023  00000-0  96871-5 0  9998,2 56459  69.9985 107.4654 0003039 272.0669  88.0142 14.98329042 50506,6950.196,96.107,574.173,569.949,0.0
56459.0,STARLINK-6048,PAYLOAD,2024-04-09 17:48:07,14.9830441,0.0002908,69.9986,106.6238,275.8111,84.2716,0.00042999,5.038e-05,0.0,0 STARLINK-6048,1 56459U 23064M   24100.74175589  .00005038  00000-0  42999-3 0  9999,2 56459  69.9986 106.6238 0002908 275.8111  84.2716 14.98304410 50915,6950.272,96.109,574.158,570.116,0.0
56459.0,STARLINK-6048,PAYLOAD,2024-04-10 05:01:03,14.98329471,0.000308,69.9984,105.4454,270.5512,89.5294,1.7112e-05,1.11e-06,0.0,0 STARLINK-6048,1 56459U 23064M   24101.20906758  .00000111  00000-0  17112-4 0  9998,2 56459  69.9984 105.4454 0003080 270.5512  89.5294 14.98329471 50989,6950.195,96.107,574.2,569.919,0.0
56459.0,STARLINK-6048,PAYLOAD,2024-04-10 09:49:27,14.98329522,0.0003078,69.9985,104.9405,270.7752,89.3054,1.6478e-05,1.04e-06,0.0,0 STARLINK-6048,1 56459U 23064M   24101.40934766  .00000104  00000-0  16478-4 0  9996,2 56459  69.9985 104.9405 0003078 270.7752  89.3054 14.98329522 50658,6950.194,96.107,574.199,569.92,0.0
56459.0,STARLINK-6048,PAYLOAD,2024-04-10 17:50:08,14.98328678,0.0003071,69.9986,104.0988,270.8086,89.2721,1.4433e-05,7.9e-07,0.0,0 STARLINK-6048,1 56459U 23064M   24101.74314832  .00000079  00000-0  14433-4 0  9999,2 56459  69.9986 104.0988 0003071 270.8086  89.2721 14.98328678 50707,6950.197,96.107,574.196,569.928,0.0
